{
  "type": "FeatureCollection",
  "features": [
    {
      "type": "Feature",
      "properties": {
        "norad_id": 29945,
        "name": "FENGYUN 1C DEB",
        "group": "fengyun-1c-debris",
        "lat": 27.08912712994217,
        "lon": -155.17812054587895,
        "alt_km": 895.5191124032044,
        "timestamp": "2025-12-22T22:44:21.248029+00:00",
        "meta_object_name": "FENGYUN 1C DEB",
        "meta_object_id": "1999-025JT",
        "meta_epoch": "2025-12-21T19:30:24.967008",
        "meta_mean_motion": 14.05577015,
        "meta_eccentricity": 0.0030496,
        "meta_inclination": 98.7911,
        "meta_ra_of_asc_node": 19.1817,
        "meta_arg_of_pericenter": 336.7252,
        "meta_mean_anomaly": 197.349,
        "meta_ephemeris_type": 0,
        "meta_classification_type": "U",
        "meta_norad_cat_id": 29945,
        "meta_element_set_no": 999,
        "meta_rev_at_epoch": 97105,
        "meta_bstar": 0.00020874298,
        "meta_mean_motion_dot": 2.98e-06,
        "meta_mean_motion_ddot": 0,
        "tle_line1": "1 29945U 99025JT  25355.81278897  .00000298  00000+0  20874-3 0  9996",
        "tle_line2": "2 29945  98.7911  19.1817 0030496 336.7252 197.3490 14.05577015971053"
      },
      "geometry": {
        "type": "Point",
        "coordinates": [
          -155.17812054587895,
          27.08912712994217
        ]
      }
    },
    {
      "type": "Feature",
      "properties": {
        "norad_id": 29946,
        "name": "FENGYUN 1C DEB",
        "group": "fengyun-1c-debris",
        "lat": -81.00916191521384,
        "lon": 66.55646692360477,
        "alt_km": 829.7029278482232,
        "timestamp": "2025-12-22T22:44:21.248039+00:00",
        "meta_object_name": "FENGYUN 1C DEB",
        "meta_object_id": "1999-025JU",
        "meta_epoch": "2025-12-21T21:53:55.337856",
        "meta_mean_motion": 14.08263066,
        "meta_eccentricity": 0.00802677,
        "meta_inclination": 98.7804,
        "meta_ra_of_asc_node": 347.906,
        "meta_arg_of_pericenter": 317.5476,
        "meta_mean_anomaly": 110.6108,
        "meta_ephemeris_type": 0,
        "meta_classification_type": "U",
        "meta_norad_cat_id": 29946,
        "meta_element_set_no": 999,
        "meta_rev_at_epoch": 97176,
        "meta_bstar": 0.00025615593,
        "meta_mean_motion_dot": 4.07e-06,
        "meta_mean_motion_ddot": 0,
        "tle_line1": "1 29946U 99025JU  25355.91244604  .00000407  00000+0  25616-3 0  9998",
        "tle_line2": "2 29946  98.7804 347.9060 0080267 317.5476 110.6108 14.08263066971766"
      },
      "geometry": {
        "type": "Point",
        "coordinates": [
          66.55646692360477,
          -81.00916191521384
        ]
      }
    },
    {
      "type": "Feature",
      "properties": {
        "norad_id": 29947,
        "name": "FENGYUN 1C DEB",
        "group": "fengyun-1c-debris",
        "lat": 60.70171498156523,
        "lon": 11.108118716433697,
        "alt_km": 851.564830846015,
        "timestamp": "2025-12-22T22:44:21.248050+00:00",
        "meta_object_name": "FENGYUN 1C DEB",
        "meta_object_id": "1999-025JV",
        "meta_epoch": "2025-12-22T14:28:58.930176",
        "meta_mean_motion": 14.03080544,
        "meta_eccentricity": 0.00410466,
        "meta_inclination": 98.8369,
        "meta_ra_of_asc_node": 26.8693,
        "meta_arg_of_pericenter": 93.7496,
        "meta_mean_anomaly": 31.8378,
        "meta_ephemeris_type": 0,
        "meta_classification_type": "U",
        "meta_norad_cat_id": 29947,
        "meta_element_set_no": 999,
        "meta_rev_at_epoch": 96888,
        "meta_bstar": 0.0002732026,
        "meta_mean_motion_dot": 3.85e-06,
        "meta_mean_motion_ddot": 0,
        "tle_line1": "1 29947U 99025JV  25356.60345984  .00000385  00000+0  27320-3 0  9998",
        "tle_line2": "2 29947  98.8369  26.8693 0041046  93.7496  31.8378 14.03080544968881"
      },
      "geometry": {
        "type": "Point",
        "coordinates": [
          11.108118716433697,
          60.70171498156523
        ]
      }
    },
    {
      "type": "Feature",
      "properties": {
        "norad_id": 29948,
        "name": "FENGYUN 1C DEB",
        "group": "fengyun-1c-debris",
        "lat": 42.119270701422316,
        "lon": -25.20858524655117,
        "alt_km": 926.813609230142,
        "timestamp": "2025-12-22T22:44:21.248114+00:00",
        "meta_object_name": "FENGYUN 1C DEB",
        "meta_object_id": "1999-025JW",
        "meta_epoch": "2025-12-22T12:51:37.415808",
        "meta_mean_motion": 14.06197432,
        "meta_eccentricity": 0.0084072,
        "meta_inclination": 98.8249,
        "meta_ra_of_asc_node": 342.465,
        "meta_arg_of_pericenter": 205.8413,
        "meta_mean_anomaly": 274.6984,
        "meta_ephemeris_type": 0,
        "meta_classification_type": "U",
        "meta_norad_cat_id": 29948,
        "meta_element_set_no": 999,
        "meta_rev_at_epoch": 97114,
        "meta_bstar": 9.289537e-06,
        "meta_mean_motion_dot": -2.7e-07,
        "meta_mean_motion_ddot": 0,
        "tle_line1": "1 29948U 99025JW  25356.53584972 -.00000027  00000+0  92895-5 0  9998",
        "tle_line2": "2 29948  98.8249 342.4650 0084072 205.8413 274.6984 14.06197432971141"
      },
      "geometry": {
        "type": "Point",
        "coordinates": [
          -25.20858524655117,
          42.119270701422316
        ]
      }
    },
    {
      "type": "Feature",
      "properties": {
        "norad_id": 29949,
        "name": "FENGYUN 1C DEB",
        "group": "fengyun-1c-debris",
        "lat": 19.32864276483247,
        "lon": 9.21161695670746,
        "alt_km": 874.3168968550599,
        "timestamp": "2025-12-22T22:44:21.248127+00:00",
        "meta_object_name": "FENGYUN 1C DEB",
        "meta_object_id": "1999-025JX",
        "meta_epoch": "2025-12-21T23:03:17.961984",
        "meta_mean_motion": 14.06828593,
        "meta_eccentricity": 0.00230287,
        "meta_inclination": 98.7616,
        "meta_ra_of_asc_node": 11.3566,
        "meta_arg_of_pericenter": 278.5092,
        "meta_mean_anomaly": 145.7336,
        "meta_ephemeris_type": 0,
        "meta_classification_type": "U",
        "meta_norad_cat_id": 29949,
        "meta_element_set_no": 999,
        "meta_rev_at_epoch": 97237,
        "meta_bstar": -4.2399012e-05,
        "meta_mean_motion_dot": -1.14e-06,
        "meta_mean_motion_ddot": 0,
        "tle_line1": "1 29949U 99025JX  25355.96062456 -.00000114  00000+0 -42399-4 0  9994",
        "tle_line2": "2 29949  98.7616  11.3566 0023028 278.5092 145.7336 14.06828593972375"
      },
      "geometry": {
        "type": "Point",
        "coordinates": [
          9.21161695670746,
          19.32864276483247
        ]
      }
    },
    {
      "type": "Feature",
      "properties": {
        "norad_id": 29950,
        "name": "FENGYUN 1C DEB",
        "group": "fengyun-1c-debris",
        "lat": -15.900841550316628,
        "lon": 30.250584445819673,
        "alt_km": 878.526363684523,
        "timestamp": "2025-12-22T22:44:21.248139+00:00",
        "meta_object_name": "FENGYUN 1C DEB",
        "meta_object_id": "1999-025JY",
        "meta_epoch": "2025-12-22T02:28:41.913696",
        "meta_mean_motion": 14.10338212,
        "meta_eccentricity": 0.00326531,
        "meta_inclination": 98.7399,
        "meta_ra_of_asc_node": 26.9185,
        "meta_arg_of_pericenter": 214.9946,
        "meta_mean_anomaly": 164.9237,
        "meta_ephemeris_type": 0,
        "meta_classification_type": "U",
        "meta_norad_cat_id": 29950,
        "meta_element_set_no": 999,
        "meta_rev_at_epoch": 97423,
        "meta_bstar": 0.00014292651,
        "meta_mean_motion_dot": 2.12e-06,
        "meta_mean_motion_ddot": 0,
        "tle_line1": "1 29950U 99025JY  25356.10326289  .00000212  00000+0  14293-3 0  9998",
        "tle_line2": "2 29950  98.7399  26.9185 0032653 214.9946 164.9237 14.10338212974239"
      },
      "geometry": {
        "type": "Point",
        "coordinates": [
          30.250584445819673,
          -15.900841550316628
        ]
      }
    },
    {
      "type": "Feature",
      "properties": {
        "norad_id": 29953,
        "name": "FENGYUN 1C DEB",
        "group": "fengyun-1c-debris",
        "lat": 78.9041169789829,
        "lon": -143.15260927638622,
        "alt_km": 978.747323495897,
        "timestamp": "2025-12-22T22:44:21.248150+00:00",
        "meta_object_name": "FENGYUN 1C DEB",
        "meta_object_id": "1999-025KB",
        "meta_epoch": "2025-12-22T10:55:17.045760",
        "meta_mean_motion": 13.90857424,
        "meta_eccentricity": 0.01056367,
        "meta_inclination": 98.9384,
        "meta_ra_of_asc_node": 343.0062,
        "meta_arg_of_pericenter": 239.92,
        "meta_mean_anomaly": 273.2157,
        "meta_ephemeris_type": 0,
        "meta_classification_type": "U",
        "meta_norad_cat_id": 29953,
        "meta_element_set_no": 999,
        "meta_rev_at_epoch": 95997,
        "meta_bstar": 0.00033585465,
        "meta_mean_motion_dot": 3.97e-06,
        "meta_mean_motion_ddot": 0,
        "tle_line1": "1 29953U 99025KB  25356.45505840  .00000397  00000+0  33585-3 0  9990",
        "tle_line2": "2 29953  98.9384 343.0062 0105636 239.9200 273.2157 13.90857424959974"
      },
      "geometry": {
        "type": "Point",
        "coordinates": [
          -143.15260927638622,
          78.9041169789829
        ]
      }
    }
  ]
}